{
  "type": "FeatureCollection",
  "features": [
    {
      "type": "Feature",
      "properties": {
        "norad_id": 63632,
        "name": "SHENZHOU-20 (SZ-20)",
        "group": "stations",
        "lat": -38.39133855744901,
        "lon": -51.40597531491434,
        "alt_km": 393.28397632673386,
        "timestamp": "2025-12-04T19:33:58.467819+00:00",
        "meta_object_name": "SHENZHOU-20 (SZ-20)",
        "meta_object_id": "2025-082A",
        "meta_epoch": "2025-12-04T07:44:04.873632",
        "meta_mean_motion": 15.58643052,
        "meta_eccentricity": 0.00099613,
        "meta_inclination": 41.4682,
        "meta_ra_of_asc_node": 67.7893,
        "meta_arg_of_pericenter": 326.0847,
        "meta_mean_anomaly": 33.9353,
        "meta_ephemeris_type": 0,
        "meta_classification_type": "U",
        "meta_norad_cat_id": 63632,
        "meta_element_set_no": 999,
        "meta_rev_at_epoch": 25530,
        "meta_bstar": 0.00047338698,
        "meta_mean_motion_dot": 0.00037313,
        "meta_mean_motion_ddot": 0,
        "tle_line1": "1 63632U 25082A   25338.32227863  .00037313  00000+0  47339-3 0  9996",
        "tle_line2": "2 63632  41.4682  67.7893 0009961 326.0847  33.9353 15.58643052255302"
      },
      "geometry": {
        "type": "Point",
        "coordinates": [
          -51.40597531491434,
          -38.39133855744901
        ]
      }
    },
    {
      "type": "Feature",
      "properties": {
        "norad_id": 64751,
        "name": "PROGRESS-MS 31",
        "group": "stations",
        "lat": 49.886546632184825,
        "lon": -108.16412272892691,
        "alt_km": 413.31043287986813,
        "timestamp": "2025-12-04T19:33:58.467832+00:00",
        "meta_object_name": "PROGRESS-MS 31",
        "meta_object_id": "2025-146A",
        "meta_epoch": "2025-12-04T02:12:18.455328",
        "meta_mean_motion": 15.49293095,
        "meta_eccentricity": 0.00036281,
        "meta_inclination": 51.6302,
        "meta_ra_of_asc_node": 185.2932,
        "meta_arg_of_pericenter": 200.9086,
        "meta_mean_anomaly": 159.1754,
        "meta_ephemeris_type": 0,
        "meta_classification_type": "U",
        "meta_norad_cat_id": 64751,
        "meta_element_set_no": 999,
        "meta_rev_at_epoch": 675,
        "meta_bstar": 0.00029177423,
        "meta_mean_motion_dot": 0.00015824,
        "meta_mean_motion_ddot": 0,
        "tle_line1": "1 64751U 25146A   25338.09188027  .00015824  00000+0  29177-3 0  9995",
        "tle_line2": "2 64751  51.6302 185.2932 0003628 200.9086 159.1754 15.49293095  6753"
      },
      "geometry": {
        "type": "Point",
        "coordinates": [
          -108.16412272892691,
          49.886546632184825
        ]
      }
    },
    {
      "type": "Feature",
      "properties": {
        "norad_id": 64786,
        "name": "TIANZHOU-9",
        "group": "stations",
        "lat": -38.39133897514823,
        "lon": -51.40597357278702,
        "alt_km": 393.2839761810137,
        "timestamp": "2025-12-04T19:33:58.467841+00:00",
        "meta_object_name": "TIANZHOU-9",
        "meta_object_id": "2025-149A",
        "meta_epoch": "2025-12-04T07:44:04.873632",
        "meta_mean_motion": 15.58643052,
        "meta_eccentricity": 0.00099613,
        "meta_inclination": 41.4682,
        "meta_ra_of_asc_node": 67.7893,
        "meta_arg_of_pericenter": 326.0847,
        "meta_mean_anomaly": 33.9353,
        "meta_ephemeris_type": 0,
        "meta_classification_type": "U",
        "meta_norad_cat_id": 64786,
        "meta_element_set_no": 999,
        "meta_rev_at_epoch": 25530,
        "meta_bstar": 0.00047338698,
        "meta_mean_motion_dot": 0.00037313,
        "meta_mean_motion_ddot": 0,
        "tle_line1": "1 64786U 25149A   25338.32227863  .00037313  00000+0  47339-3 0  9991",
        "tle_line2": "2 64786  41.4682  67.7893 0009961 326.0847  33.9353 15.58643052255303"
      },
      "geometry": {
        "type": "Point",
        "coordinates": [
          -51.40597357278702,
          -38.39133897514823
        ]
      }
    },
    {
      "type": "Feature",
      "properties": {
        "norad_id": 65077,
        "name": "CREW DRAGON 11",
        "group": "stations",
        "lat": 49.886546976836655,
        "lon": -108.1641207952154,
        "alt_km": 413.31043278690504,
        "timestamp": "2025-12-04T19:33:58.467852+00:00",
        "meta_object_name": "CREW DRAGON 11",
        "meta_object_id": "2025-166A",
        "meta_epoch": "2025-12-04T02:12:18.455328",
        "meta_mean_motion": 15.49293095,
        "meta_eccentricity": 0.00036281,
        "meta_inclination": 51.6302,
        "meta_ra_of_asc_node": 185.2932,
        "meta_arg_of_pericenter": 200.9086,
        "meta_mean_anomaly": 159.1754,
        "meta_ephemeris_type": 0,
        "meta_classification_type": "U",
        "meta_norad_cat_id": 65077,
        "meta_element_set_no": 999,
        "meta_rev_at_epoch": 214,
        "meta_bstar": 0.00029177423,
        "meta_mean_motion_dot": 0.00015824,
        "meta_mean_motion_ddot": 0,
        "tle_line1": "1 65077U 25166A   25338.09188027  .00015824  00000+0  29177-3 0  9999",
        "tle_line2": "2 65077  51.6302 185.2932 0003628 200.9086 159.1754 15.49293095  2144"
      },
      "geometry": {
        "type": "Point",
        "coordinates": [
          -108.1641207952154,
          49.886546976836655
        ]
      }
    },
    {
      "type": "Feature",
      "properties": {
        "norad_id": 65304,
        "name": "DRAGON CRS-33",
        "group": "stations",
        "lat": 49.88654713193029,
        "lon": -108.16411992504334,
        "alt_km": 413.3104327450719,
        "timestamp": "2025-12-04T19:33:58.467861+00:00",
        "meta_object_name": "DRAGON CRS-33",
        "meta_object_id": "2025-186A",
        "meta_epoch": "2025-12-04T02:12:18.455328",
        "meta_mean_motion": 15.49293095,
        "meta_eccentricity": 0.00036281,
        "meta_inclination": 51.6302,
        "meta_ra_of_asc_node": 185.2932,
        "meta_arg_of_pericenter": 200.9086,
        "meta_mean_anomaly": 159.1754,
        "meta_ephemeris_type": 0,
        "meta_classification_type": "U",
        "meta_norad_cat_id": 65304,
        "meta_element_set_no": 999,
        "meta_rev_at_epoch": 11,
        "meta_bstar": 0.00029177423,
        "meta_mean_motion_dot": 0.00015824,
        "meta_mean_motion_ddot": 0,
        "tle_line1": "1 65304U 25186A   25338.09188027  .00015824  00000+0  29177-3 0  9994",
        "tle_line2": "2 65304  51.6302 185.2932 0003628 200.9086 159.1754 15.49293095   112"
      },
      "geometry": {
        "type": "Point",
        "coordinates": [
          -108.16411992504334,
          49.88654713193029
        ]
      }
    },
    {
      "type": "Feature",
      "properties": {
        "norad_id": 65586,
        "name": "PROGRESS-MS 32",
        "group": "stations",
        "lat": 49.886547287023504,
        "lon": -108.16411905487371,
        "alt_km": 413.310432703237,
        "timestamp": "2025-12-04T19:33:58.467870+00:00",
        "meta_object_name": "PROGRESS-MS 32",
        "meta_object_id": "2025-204A",
        "meta_epoch": "2025-12-04T02:12:18.455328",
        "meta_mean_motion": 15.49293095,
        "meta_eccentricity": 0.00036281,
        "meta_inclination": 51.6302,
        "meta_ra_of_asc_node": 185.2932,
        "meta_arg_of_pericenter": 200.9086,
        "meta_mean_anomaly": 159.1754,
        "meta_ephemeris_type": 0,
        "meta_classification_type": "U",
        "meta_norad_cat_id": 65586,
        "meta_element_set_no": 999,
        "meta_rev_at_epoch": 27,
        "meta_bstar": 0.00029177423,
        "meta_mean_motion_dot": 0.00015824,
        "meta_mean_motion_ddot": 0,
        "tle_line1": "1 65586U 25204A   25338.09188027  .00015824  00000+0  29177-3 0  9997",
        "tle_line2": "2 65586  51.6302 185.2932 0003628 200.9086 159.1754 15.49293095   271"
      },
      "geometry": {
        "type": "Point",
        "coordinates": [
          -108.16411905487371,
          49.886547287023504
        ]
      }
    },
    {
      "type": "Feature",
      "properties": {
        "norad_id": 65616,
        "name": "CYGNUS NG-23",
        "group": "stations",
        "lat": 49.886547442117354,
        "lon": -108.16411818470043,
        "alt_km": 413.3104326614048,
        "timestamp": "2025-12-04T19:33:58.467879+00:00",
        "meta_object_name": "CYGNUS NG-23",
        "meta_object_id": "2025-208A",
        "meta_epoch": "2025-12-04T02:12:18.455328",
        "meta_mean_motion": 15.49293095,
        "meta_eccentricity": 0.00036281,
        "meta_inclination": 51.6302,
        "meta_ra_of_asc_node": 185.2932,
        "meta_arg_of_pericenter": 200.9086,
        "meta_mean_anomaly": 159.1754,
        "meta_ephemeris_type": 0,
        "meta_classification_type": "U",
        "meta_norad_cat_id": 65616,
        "meta_element_set_no": 999,
        "meta_rev_at_epoch": 22,
        "meta_bstar": 0.00029177423,
        "meta_mean_motion_dot": 0.00015824,
        "meta_mean_motion_ddot": 0,
        "tle_line1": "1 65616U 25208A   25338.09188027  .00015824  00000+0  29177-3 0  9995",
        "tle_line2": "2 65616  51.6302 185.2932 0003628 200.9086 159.1754 15.49293095   220"
      },
      "geometry": {
        "type": "Point",
        "coordinates": [
          -108.16411818470043,
          49.886547442117354
        ]
      }
    }
  ]
}